[{"OBJECT_NAME":"ONEWEB-0210","OBJECT_ID":"2021-045W","EPOCH":"2026-03-09T14:13:57.264960","MEAN_MOTION":13.15547753,"ECCENTRICITY":0.0001494,"INCLINATION":87.895,"RA_OF_ASC_NODE":279.0628,"ARG_OF_PERICENTER":124.2805,"MEAN_ANOMALY":235.8467,"EPHEMERIS_TYPE":0,"CLASSIFICATION_TYPE":"U","NORAD_CAT_ID":48787,"ELEMENT_SET_NO":999,"REV_AT_EPOCH":23122,"BSTAR":-0.00012872,"MEAN_MOTION_DOT":-3.6e-7,"MEAN_MOTION_DDOT":0},{"OBJECT_NAME":"SCOUT A DEB","OBJECT_ID":"1967-092D","EPOCH":"2026-03-09T12:46:23.498688","MEAN_MOTION":13.2596294,"ECCENTRICITY":0.01876111,"INCLINATION":89.0548,"RA_OF_ASC_NODE":97.3023,"ARG_OF_PERICENTER":141.5107,"MEAN_ANOMALY":12.5046,"EPHEMERIS_TYPE":0,"CLASSIFICATION_TYPE":"U","NORAD_CAT_ID":3122,"ELEMENT_SET_NO":999,"REV_AT_EPOCH":56981,"BSTAR":0.0004073723,"MEAN_MOTION_DOT":2.09e-6,"MEAN_MOTION_DDOT":0}]
